{"type": "FeatureCollection", "features": [ {"type": "Feature", "properties": {"norad_id": 33153, "name": "INTELSAT 25 (IS-25)", "group": "intelsat", "lat": 1.4759624137193292, "lon": -139.57255019462346, "alt_km": 35770.56822295535, "timestamp": "2025-12-09T11:33:54.468145+00:00", "meta": {"OBJECT_NAME": "INTELSAT 25 (IS-25)", "OBJECT_ID": "2008-034A", "EPOCH": "2025-12-09T03:09:01.481760", "MEAN_MOTION": 1.00270351, "ECCENTRICITY": 0.0005407, "INCLINATION": 2.2185, "RA_OF_ASC_NODE": 82.6867, "ARG_OF_PERICENTER": 184.3162, "MEAN_ANOMALY": 186.8838, "EPHEMERIS_TYPE": 0, "CLASSIFICATION_TYPE": "U", "NORAD_CAT_ID": 33153, "ELEMENT_SET_NO": 999, "REV_AT_EPOCH": 6379, "BSTAR": 0, "MEAN_MOTION_DOT": -2.22e-06, "MEAN_MOTION_DDOT": 0}, "tle": {"line1": "1 33153U 08034A   25343.13126715 -.00000222  00000+0  00000+0 0  9998", "line2": "2 33153   2.2185  82.6867 0005407 184.3162 186.8838  1.00270351 63799"}}, "geometry": {"type": "Point", "coordinates": [-139.57255019462346, 1.4759624137193292]}}, {"type": "Feature", "properties": {"norad_id": 33376, "name": "GALAXY 19 (G-19)", "group": "intelsat", "lat": -0.006974883051766495, "lon": 154.9028856729589, "alt_km": 35793.058057015645, "timestamp": "2025-12-09T11:33:54.468157+00:00", "meta": {"OBJECT_NAME": "GALAXY 19 (G-19)", "OBJECT_ID": "2008-045A", "EPOCH": "2025-12-09T04:12:38.528352", "MEAN_MOTION": 1.00269834, "ECCENTRICITY": 0.0003371, "INCLINATION": 0.0184, "RA_OF_ASC_NODE": 313.435, "ARG_OF_PERICENTER": 318.3017, "MEAN_ANOMALY": 132.588, "EPHEMERIS_TYPE": 0, "CLASSIFICATION_TYPE": "U", "NORAD_CAT_ID": 33376, "ELEMENT_SET_NO": 999, "REV_AT_EPOCH": 6299, "BSTAR": 0, "MEAN_MOTION_DOT": -1.37e-06, "MEAN_MOTION_DDOT": 0}, "tle": {"line1": "1 33376U 08045A   25343.17544593 -.00000137  00000+0  00000+0 0  9994", "line2": "2 33376   0.0184 313.4350 0003371 318.3017 132.5880  1.00269834 62999"}}, "geometry": {"type": "Point", "coordinates": [154.9028856729589, -0.006974883051766495]}}, {"type": "Feature", "properties": {"norad_id": 35493, "name": "FM-5", "group": "intelsat", "lat": -0.01890801497620185, "lon": 165.80555702720142, "alt_km": 35782.95883760957, "timestamp": "2025-12-09T11:33:54.468169+00:00", "meta": {"OBJECT_NAME": "FM-5", "OBJECT_ID": "2009-034A", "EPOCH": "2025-12-08T23:27:59.810976", "MEAN_MOTION": 1.0027183, "ECCENTRICITY": 7.69e-05, "INCLINATION": 0.0205, "RA_OF_ASC_NODE": 287.8987, "ARG_OF_PERICENTER": 250.7085, "MEAN_ANOMALY": 165.2291, "EPHEMERIS_TYPE": 0, "CLASSIFICATION_TYPE": "U", "NORAD_CAT_ID": 35493, "ELEMENT_SET_NO": 999, "REV_AT_EPOCH": 4473, "BSTAR": 0, "MEAN_MOTION_DOT": -1.98e-06, "MEAN_MOTION_DDOT": 0}, "tle": {"line1": "1 35493U 09034A   25342.97777559 -.00000198  00000+0  00000+0 0  9999", "line2": "2 35493   0.0205 287.8987 0000769 250.7085 165.2291  1.00271830 44737"}}, "geometry": {"type": "Point", "coordinates": [165.80555702720142, -0.01890801497620185]}}, {"type": "Feature", "properties": {"norad_id": 36097, "name": "INTELSAT 14 (IS-14)", "group": "intelsat", "lat": -0.021561856830686205, "lon": -153.07465730180272, "alt_km": 35780.52129365586, "timestamp": "2025-12-09T11:33:54.468181+00:00", "meta": {"OBJECT_NAME": "INTELSAT 14 (IS-14)", "OBJECT_ID": "2009-064A", "EPOCH": "2025-12-09T03:05:09.354336", "MEAN_MOTION": 1.00270456, "ECCENTRICITY": 0.0002682, "INCLINATION": 0.01, "RA_OF_ASC_NODE": 342.3099, "ARG_OF_PERICENTER": 282.9219, "MEAN_ANOMALY": 174.1888, "EPHEMERIS_TYPE": 0, "CLASSIFICATION_TYPE": "U", "NORAD_CAT_ID": 36097, "ELEMENT_SET_NO": 999, "REV_AT_EPOCH": 5869, "BSTAR": 0, "MEAN_MOTION_DOT": -2.71e-06, "MEAN_MOTION_DDOT": 0}, "tle": {"line1": "1 36097U 09064A   25343.12858049 -.00000271  00000+0  00000+0 0  9997", "line2": "2 36097   0.0100 342.3099 0002682 282.9219 174.1888  1.00270456 58699"}}, "geometry": {"type": "Point", "coordinates": [-153.07465730180272, -0.021561856830686205]}}, {"type": "Feature", "properties": {"norad_id": 36106, "name": "INTELSAT 15 (IS-15)", "group": "intelsat", "lat": 0.021789090984518325, "lon": -22.873071557759932, "alt_km": 35781.83875651127, "timestamp": "2025-12-09T11:33:54.468193+00:00", "meta": {"OBJECT_NAME": "INTELSAT 15 (IS-15)", "OBJECT_ID": "2009-067A", "EPOCH": "2025-12-09T02:24:38.646720", "MEAN_MOTION": 1.00273106, "ECCENTRICITY": 0.0002572, "INCLINATION": 0.0293, "RA_OF_ASC_NODE": 285.0945, "ARG_OF_PERICENTER": 343.0358, "MEAN_ANOMALY": 291.2788, "EPHEMERIS_TYPE": 0, "CLASSIFICATION_TYPE": "U", "NORAD_CAT_ID": 36106, "ELEMENT_SET_NO": 999, "REV_AT_EPOCH": 3932, "BSTAR": 0, "MEAN_MOTION_DOT": -1.83e-06, "MEAN_MOTION_DDOT": 0}, "tle": {"line1": "1 36106U 09067A   25343.10044730 -.00000183  00000+0  00000+0 0  9995", "line2": "2 36106   0.0293 285.0945 0002572 343.0358 291.2788  1.00273106 39321"}}, "geometry": {"type": "Point", "coordinates": [-22.873071557759932, 0.021789090984518325]}}, {"type": "Feature", "properties": {"norad_id": 36131, "name": "DIRECTV 12", "group": "intelsat", "lat": 0.022182793904377836, "lon": 149.22073756815885, "alt_km": 35788.007043963065, "timestamp": "2025-12-09T11:33:54.468205+00:00", "meta": {"OBJECT_NAME": "DIRECTV 12", "OBJECT_ID": "2009-075A", "EPOCH": "2025-12-08T21:40:32.604096", "MEAN_MOTION": 1.00270047, "ECCENTRICITY": 3.55e-05, "INCLINATION": 0.0409, "RA_OF_ASC_NODE": 138.4209, "ARG_OF_PERICENTER": 206.7884, "MEAN_ANOMALY": 315.1057, "EPHEMERIS_TYPE": 0, "CLASSIFICATION_TYPE": "U", "NORAD_CAT_ID": 36131, "ELEMENT_SET_NO": 999, "REV_AT_EPOCH": 4464, "BSTAR": 0, "MEAN_MOTION_DOT": -1.01e-06, "MEAN_MOTION_DDOT": 0}, "tle": {"line1": "1 36131U 09075A   25342.90315514 -.00000101  00000+0  00000+0 0  9990", "line2": "2 36131   0.0409 138.4209 0000355 206.7884 315.1057  1.00270047 44645"}}, "geometry": {"type": "Point", "coordinates": [149.22073756815885, 0.022182793904377836]}}, {"type": "Feature", "properties": {"norad_id": 36397, "name": "INTELSAT 16 (IS-16)", "group": "intelsat", "lat": -0.018279595691540834, "lon": 175.71777823958664, "alt_km": 35785.93000937217, "timestamp": "2025-12-09T11:33:54.468217+00:00", "meta": {"OBJECT_NAME": "INTELSAT 16 (IS-16)", "OBJECT_ID": "2010-006A", "EPOCH": "2025-12-09T03:56:38.639904", "MEAN_MOTION": 1.00270336, "ECCENTRICITY": 0.0002298, "INCLINATION": 0.0156, "RA_OF_ASC_NODE": 308.0458, "ARG_OF_PERICENTER": 314.2167, "MEAN_ANOMALY": 158.8579, "EPHEMERIS_TYPE": 0, "CLASSIFICATION_TYPE": "U", "NORAD_CAT_ID": 36397, "ELEMENT_SET_NO": 999, "REV_AT_EPOCH": 5774, "BSTAR": 0, "MEAN_MOTION_DOT": -2.42e-06, "MEAN_MOTION_DDOT": 0}, "tle": {"line1": "1 36397U 10006A   25343.16433611 -.00000242  00000+0  00000+0 0  9994", "line2": "2 36397   0.0156 308.0458 0002298 314.2167 158.8579  1.00270336 57743"}}, "geometry": {"type": "Point", "coordinates": [175.71777823958664, -0.018279595691540834]}}, {"type": "Feature", "properties": {"norad_id": 37185, "name": "XM-5", "group": "intelsat", "lat": -0.03488832791638876, "lon": 136.74603067079997, "alt_km": 35779.743602504, "timestamp": "2025-12-09T11:33:54.468228+00:00", "meta": {"OBJECT_NAME": "XM-5", "OBJECT_ID": "2010-053A", "EPOCH": "2025-12-09T01:02:28.260960", "MEAN_MOTION": 1.00269679, "ECCENTRICITY": 0.000175, "INCLINATION": 0.0636, "RA_OF_ASC_NODE": 272.6513, "ARG_OF_PERICENTER": 243.8809, "MEAN_ANOMALY": 181.9359, "EPHEMERIS_TYPE": 0, "CLASSIFICATION_TYPE": "U", "NORAD_CAT_ID": 37185, "ELEMENT_SET_NO": 999, "REV_AT_EPOCH": 5557, "BSTAR": 0, "MEAN_MOTION_DOT": -2.1e-07, "MEAN_MOTION_DDOT": 0}, "tle": {"line1": "1 37185U 10053A   25343.04338265 -.00000021  00000+0  00000+0 0  9993", "line2": "2 37185   0.0636 272.6513 0001750 243.8809 181.9359  1.00269679 55572"}}, "geometry": {"type": "Point", "coordinates": [136.74603067079997, -0.03488832791638876]}}, {"type": "Feature", "properties": {"norad_id": 37238, "name": "INTELSAT 17 (IS-17)", "group": "intelsat", "lat": 0.003938653194002578, "lon": -42.01652821303797, "alt_km": 35779.853996970305, "timestamp": "2025-12-09T11:33:54.468240+00:00", "meta": {"OBJECT_NAME": "INTELSAT 17 (IS-17)", "OBJECT_ID": "2010-065B", "EPOCH": "2025-12-09T03:36:51.318144", "MEAN_MOTION": 1.00273452, "ECCENTRICITY": 0.000249, "INCLINATION": 0.0157, "RA_OF_ASC_NODE": 282.9956, "ARG_OF_PERICENTER": 338.0088, "MEAN_ANOMALY": 297.3668, "EPHEMERIS_TYPE": 0, "CLASSIFICATION_TYPE": "U", "NORAD_CAT_ID": 37238, "ELEMENT_SET_NO": 999, "REV_AT_EPOCH": 5134, "BSTAR": 0, "MEAN_MOTION_DOT": 0, "MEAN_MOTION_DDOT": 0}, "tle": {"line1": "1 37238U 10065B   25343.15059396  .00000000  00000+0  00000+0 0  9998", "line2": "2 37238   0.0157 282.9956 0002490 338.0088 297.3668  1.00273452 51342"}}, "geometry": {"type": "Point", "coordinates": [-42.01652821303797, 0.003938653194002578]}}, {"type": "Feature", "properties": {"norad_id": 37392, "name": "INTELSAT 28 (IS-28)", "group": "intelsat", "lat": 0.911342998307238, "lon": -139.77694427918004, "alt_km": 35773.50883358465, "timestamp": "2025-12-09T11:33:54.468252+00:00", "meta": {"OBJECT_NAME": "INTELSAT 28 (IS-28)", "OBJECT_ID": "2011-016A", "EPOCH": "2025-12-09T03:09:01.481760", "MEAN_MOTION": 1.00272258, "ECCENTRICITY": 0.0003998, "INCLINATION": 1.3153, "RA_OF_ASC_NODE": 85.0987, "ARG_OF_PERICENTER": 178.3056, "MEAN_ANOMALY": 190.2771, "EPHEMERIS_TYPE": 0, "CLASSIFICATION_TYPE": "U", "NORAD_CAT_ID": 37392, "ELEMENT_SET_NO": 999, "REV_AT_EPOCH": 5138, "BSTAR": 0, "MEAN_MOTION_DOT": -2.23e-06, "MEAN_MOTION_DDOT": 0}, "tle": {"line1": "1 37392U 11016A   25343.13126715 -.00000223  00000+0  00000+0 0  9992", "line2": "2 37392   1.3153  85.0987 0003998 178.3056 190.2771  1.00272258 51386"}}, "geometry": {"type": "Point", "coordinates": [-139.77694427918004, 0.911342998307238]}}]}